QIANFAN-33              
1 61566U 24185Q   25213.55686125  .00000220  00000+0  14956-3 0  9996
2 61566  88.9787  93.6768 0008308  34.4422 325.7291 13.96406552 50577
QIANFAN-35              
1 61568U 24185S   25213.46985532  .00000578  00000+0  22865-3 0  9996
2 61568  88.9788  92.5423 0007672  22.1674 337.9850 14.27656336 51166
QIANFAN-36              
1 61569U 24185T   25213.58083479  .00000122  00000+0  15817-3 0  9993
2 61569  88.9778  94.9340 0008146  71.2639 288.9398 13.55544465 49880
QIANFAN-38              
1 62239U 24232C   25213.55238615  .00000040  00000+0  43221-4 0  9992
2 62239  88.9932  54.7081 0013286 214.1552 145.8746 13.50953345 81246
QIANFAN-39              
1 62240U 24232D   25213.52364165  .00000140  00000+0  53330-4 0  9994
2 62240  88.9930  52.5683 0017217 147.9206 212.3039 14.25228936 82416
